OBJECT_NAME,OBJECT_ID,EPOCH,MEAN_MOTION,ECCENTRICITY,INCLINATION,RA_OF_ASC_NODE,ARG_OF_PERICENTER,MEAN_ANOMALY,EPHEMERIS_TYPE,CLASSIFICATION_TYPE,NORAD_CAT_ID,ELEMENT_SET_NO,REV_AT_EPOCH,BSTAR,MEAN_MOTION_DOT,MEAN_MOTION_DDOT
ION SCV-008,2023-001AU,2026-05-20T13:03:26.268192,15.28194491,.0016487,97.5696,236.4103,109.4467,250.8555,0,U,55051,999,18711,.17502E-3,.4749E-4,0
ION SCV-007,2023-001BD,2026-05-20T10:22:29.146656,14.77524498,.0013685,97.9021,203.9960,68.5674,291.6995,0,U,55060,999,18215,.43155E-4,.257E-5,0
HUYGENS,2023-001CN,2026-05-20T12:39:56.728224,15.39537584,.0010017,97.3257,207.7019,172.7188,187.4205,0,U,55093,999,18811,.17156E-3,.6668E-4,0
SHARJAHSAT-1,2023-001CZ,2026-05-20T10:55:15.976992,15.47950342,.0005928,97.3179,208.8582,185.6553,174.4631,0,U,55104,999,18820,.26277E-3,.1363E-3,0
HORUS 1,2023-025A,2026-05-20T11:59:58.289280,15.23270651,.0001078,97.3464,215.6754,135.1703,224.9621,0,U,55690,999,17983,.17039E-3,.3969E-4,0
HORUS 2,2023-032A,2026-05-20T11:16:42.748608,15.23452439,.0003102,97.3534,216.4245,132.0242,228.1260,0,U,55844,999,17726,.16655E-3,.3899E-4,0
GLOBAL-19,2023-041B,2026-05-20T01:14:24.415008,15.38413113,.00054267,42.0028,6.0370,156.9364,203.1720,0,U,55982,999,17759,.28343617E-3,.10734E-3,0
BRO-9,2023-054H,2026-05-20T08:45:54.332352,15.83876766,.0008007,97.2966,56.7557,117.4320,242.7765,0,U,56185,999,17466,.88088E-3,.199154E-2,0
ION SCV-010,2023-054Q,2026-05-20T10:10:12.522720,15.25925007,.0011396,97.3810,30.2792,308.3657,51.6557,0,U,56192,999,17196,.12462E-3,.3129E-4,0
TELEOS-2,2023-057C,2026-05-20T08:41:56.893056,14.96365126,.0000835,9.9888,46.7712,263.8756,96.1362,0,U,56310,999,16862,.33202E-3,.4552E-4,0
SNIPE 4,2023-072B,2026-05-20T12:00:30.479328,15.41155778,.0006925,97.5274,345.6490,73.6057,286.5950,0,U,56744,999,16584,.37441E-3,.15454E-3,0
SNIPE 2,2023-072C,2026-05-20T13:20:54.981888,15.45330826,.0006408,97.5269,348.5655,98.0420,262.1555,0,U,56745,999,16597,.40953E-3,.1947E-3,0
2023-072G,2023-072G,2026-05-20T13:21:41.488416,15.48888892,.0005549,97.4926,347.3418,89.4879,270.7007,0,U,56749,999,16618,.38972E-3,.20948E-3,0
GEISAT PRECURSOR,2023-084C,2026-05-20T12:05:22.992576,15.34226326,.0007191,97.6192,280.5607,88.3356,271.8709,0,U,56934,999,16328,.16249E-3,.5302E-4,0
BLACKJACK ACES-3,2023-084U,2026-05-20T08:38:02.611680,15.18276217,.0004053,97.6177,275.3497,101.0884,259.0806,0,U,56950,999,16294,.15641E-3,.3136E-4,0
BLACKJACK ACES-2,2023-084Z,2026-05-20T10:22:18.998112,15.18218947,.0002169,97.6174,275.5069,89.5058,270.6424,0,U,56955,999,16296,.1723E-3,.3455E-4,0
BLACKJACK ACES-1,2023-084AA,2026-05-20T10:04:58.041408,15.18201947,.0001512,97.6168,275.2725,95.0028,265.1378,0,U,56956,999,11268,.21461E-3,.4319E-4,0
ION SCV-011,2023-084AB,2026-05-20T05:56:00.672000,15.28539869,.0008333,98.1382,324.9447,129.2040,230.9938,0,U,56957,999,16154,.13607E-3,.3693E-4,0
GHOST-3,2023-084AC,2026-05-20T08:33:34.509024,15.46885312,.000673,97.6191,287.4631,45.2491,314.9305,0,U,56958,999,16371,.24548E-3,.1226E-3,0
TOMORROW-R2,2023-084AG,2026-05-20T10:15:56.304000,15.90533549,.0002687,97.5949,301.0233,268.1033,91.9932,0,U,56962,999,16462,.51507E-3,.156679E-2,.11179E-4
AFR-1,2023-084AJ,2026-05-20T12:56:17.718144,15.28288280,.0011994,97.6241,276.5767,79.1035,281.1553,0,U,56964,999,16300,.12163E-3,.3279E-4,0
METEOR-M2 3,2023-091A,2026-05-20T13:20:06.215136,14.24044155,.0002883,98.6097,196.0965,242.0522,118.0365,0,U,57166,999,15058,.13331E-4,-.13E-6,0
UMKA 1 (RS40S),2023-091G,2026-05-20T12:31:51.890304,15.20460452,.0012125,97.5063,199.3305,209.2575,150.7982,0,U,57172,999,15980,.18642E-3,.4006E-4,0
2023-091H,2023-091H,2026-05-20T11:41:54.563712,15.27966347,.0009582,97.5057,203.4670,202.0583,158.0245,0,U,57173,999,16007,.28362E-3,.7674E-4,0
2023-091J,2023-091J,2026-05-20T11:49:13.219968,15.13715706,.0011902,97.5071,193.9852,239.3902,120.6156,0,U,57174,999,15944,.14581E-3,.2564E-4,0
CUBEBEL 2 (EU11S),2023-091K,2026-05-20T11:55:48.919872,15.28426077,.0009622,97.5060,203.4800,203.6604,156.4194,0,U,57175,999,16007,.30443E-3,.836E-4,0
SITRO-AIS 5 (KATYS),2023-091L,2026-05-20T12:28:28.454592,15.28742662,.0011464,97.5069,204.1687,192.0124,168.0844,0,U,57176,999,16011,.30559E-3,.8479E-4,0
ZORKIY-2M 1,2023-091M,2026-05-20T12:13:52.153824,15.20497583,.0012817,97.5103,199.5686,206.2862,153.7724,0,U,57177,999,15979,.21745E-3,.4691E-4,0
CUBESX-HSE 3 (RS42S),2023-091N,2026-05-20T12:34:28.371936,15.30432397,.0011175,97.5100,205.7760,182.0125,178.1073,0,U,57178,999,16019,.33666E-3,.985E-4,0
MONITOR-3 (RS58S),2023-091Q,2026-05-20T11:43:51.570912,15.27215995,.0011749,97.5092,203.7424,189.5265,170.5753,0,U,57180,999,16006,.26334E-3,.6962E-4,0
