ION SCV-008             
1 55051U 23001AU  26140.54405403  .00004749  00000+0  17502-3 0  9991
2 55051  97.5696 236.4103 0016487 109.4467 250.8555 15.28194491187118
ION SCV-007             
1 55060U 23001BD  26140.43228179  .00000257  00000+0  43155-4 0  9996
2 55060  97.9021 203.9960 0013685  68.5674 291.6995 14.77524498182153
HUYGENS                 
1 55093U 23001CN  26140.52773991  .00006668  00000+0  17156-3 0  9992
2 55093  97.3257 207.7019 0010017 172.7188 187.4205 15.39537584188112
SHARJAHSAT-1            
1 55104U 23001CZ  26140.45504603  .00013630  00000+0  26277-3 0  9990
2 55104  97.3179 208.8582 0005928 185.6553 174.4631 15.47950342188208
HORUS 1                 
1 55690U 23025A   26140.49998020  .00003969  00000+0  17039-3 0  9990
2 55690  97.3464 215.6754 0001078 135.1703 224.9621 15.23270651179832
HORUS 2                 
1 55844U 23032A   26140.46993922  .00003899  00000+0  16655-3 0  9997
2 55844  97.3534 216.4245 0003102 132.0242 228.1260 15.23452439177265
GLOBAL-19               
1 55982U 23041B   26140.05167147  .00010734  00000+0  28344-3 0  9991
2 55982  42.0028   6.0370 0005426 156.9364 203.1720 15.38413113177598
BRO-9                   
1 56185U 23054H   26140.36521218  .00199154  00000+0  88088-3 0  9993
2 56185  97.2966  56.7557 0008007 117.4320 242.7765 15.83876766174668
ION SCV-010             
1 56192U 23054Q   26140.42375605  .00003129  00000+0  12462-3 0  9994
2 56192  97.3810  30.2792 0011396 308.3657  51.6557 15.25925007171967
TELEOS-2                
1 56310U 23057C   26140.36246404  .00004552  00000+0  33202-3 0  9992
2 56310   9.9888  46.7712 0000835 263.8756  96.1362 14.96365126168622
SNIPE 4                 
1 56744U 23072B   26140.50035277  .00015454  00000+0  37441-3 0  9992
2 56744  97.5274 345.6490 0006925  73.6057 286.5950 15.41155778165846
SNIPE 2                 
1 56745U 23072C   26140.55619192  .00019470  00000+0  40953-3 0  9996
2 56745  97.5269 348.5655 0006408  98.0420 262.1555 15.45330826165975
2023-072G               
1 56749U 23072G   26140.55673019  .00020948  00000+0  38972-3 0  9998
2 56749  97.4926 347.3418 0005549  89.4879 270.7007 15.48888892166184
GEISAT PRECURSOR        
1 56934U 23084C   26140.50373834  .00005302  00000+0  16249-3 0  9994
2 56934  97.6192 280.5607 0007191  88.3356 271.8709 15.34226326163280
BLACKJACK ACES-3        
1 56950U 23084U   26140.35975245  .00003136  00000+0  15641-3 0  9997
2 56950  97.6177 275.3497 0004053 101.0884 259.0806 15.18276217162947
BLACKJACK ACES-2        
1 56955U 23084Z   26140.43216433  .00003455  00000+0  17230-3 0  9998
2 56955  97.6174 275.5069 0002169  89.5058 270.6424 15.18218947162968
BLACKJACK ACES-1        
1 56956U 23084AA  26140.42011622  .00004319  00000+0  21461-3 0  9992
2 56956  97.6168 275.2725 0001512  95.0028 265.1378 15.18201947112681
ION SCV-011             
1 56957U 23084AB  26140.24723000  .00003693  00000+0  13607-3 0  9990
2 56957  98.1382 324.9447 0008333 129.2040 230.9938 15.28539869161540
GHOST-3                 
1 56958U 23084AC  26140.35664941  .00012260  00000+0  24548-3 0  9997
2 56958  97.6191 287.4631 0006730  45.2491 314.9305 15.46885312163716
TOMORROW-R2             
1 56962U 23084AG  26140.42773500  .00156679  11179-4  51507-3 0  9994
2 56962  97.5949 301.0233 0002687 268.1033  91.9932 15.90533549164627
AFR-1                   
1 56964U 23084AJ  26140.53909396  .00003279  00000+0  12163-3 0  9990
2 56964  97.6241 276.5767 0011994  79.1035 281.1553 15.28288280163009
METEOR-M2 3             
1 57166U 23091A   26140.55562749 -.00000013  00000+0  13331-4 0  9995
2 57166  98.6097 196.0965 0002883 242.0522 118.0365 14.24044155150583
UMKA 1 (RS40S)          
1 57172U 23091G   26140.52212836  .00004006  00000+0  18642-3 0  9992
2 57172  97.5063 199.3305 0012125 209.2575 150.7982 15.20460452159809
2023-091H               
1 57173U 23091H   26140.48743708  .00007674  00000+0  28362-3 0  9999
2 57173  97.5057 203.4670 0009582 202.0583 158.0245 15.27966347160073
2023-091J               
1 57174U 23091J   26140.49251412  .00002564  00000+0  14581-3 0  9998
2 57174  97.5071 193.9852 0011902 239.3902 120.6156 15.13715706159443
CUBEBEL 2 (EU11S)       
1 57175U 23091K   26140.49709398  .00008360  00000+0  30443-3 0  9995
2 57175  97.5060 203.4800 0009622 203.6604 156.4194 15.28426077160077
SITRO-AIS 5 (KATYS)     
1 57176U 23091L   26140.51977378  .00008479  00000+0  30559-3 0  9993
2 57176  97.5069 204.1687 0011464 192.0124 168.0844 15.28742662160110
ZORKIY-2M 1             
1 57177U 23091M   26140.50963141  .00004691  00000+0  21745-3 0  9995
2 57177  97.5103 199.5686 0012817 206.2862 153.7724 15.20497583159797
CUBESX-HSE 3 (RS42S)    
1 57178U 23091N   26140.52393949  .00009850  00000+0  33666-3 0  9998
2 57178  97.5100 205.7760 0011175 182.0125 178.1073 15.30432397160194
MONITOR-3 (RS58S)       
1 57180U 23091Q   26140.48879133  .00006962  00000+0  26334-3 0  9995
2 57180  97.5092 203.7424 0011749 189.5265 170.5753 15.27215995160062
